start=new Date('2021-10-05T00:00:00.000Z').valueOf();
sats=[{"FILE":"3144803","BSTAR":"-0.00049332000000","COUNTRY_CODE":"US","EPOCH":"2021-10-05T00:00:00.999648","MEAN_ANOMALY":"296.0319","DECAY_DATE":null,"OBJECT_NAME":"STARLINK-2225","CENTER_NAME":"EARTH","ELEMENT_SET_NO":"999","EPHEMERIS_TYPE":"0","SITE":"AFETR","INCLINATION":"53.0549","OBJECT_ID":"2021-041X","TLE_LINE1":"1 48574U 21041X   21278.00001157 -.00021840  00000-0 -49332-3 0  9991","RCS_SIZE":"LARGE","SEMIMAJOR_AXIS":"6817.799","TIME_SYSTEM":"UTC","APOAPSIS":"441.359","LAUNCH_DATE":"2021-05-15","ECCENTRICITY":"0.00024860","PERIAPSIS":"437.969","MEAN_ELEMENT_THEORY":"SGP4","REV_AT_EPOCH":"362","MEAN_MOTION_DOT":"-0.00021840","GP_ID":"186227139","PERIOD":"93.374","TLE_LINE2":"2 48574  53.0549 164.9595 0002486  24.7619 296.0319 15.42184861  3625","NORAD_CAT_ID":"48574","CLASSIFICATION_TYPE":"U","ARG_OF_PERICENTER":"24.7619","MEAN_MOTION":"15.42184861","REF_FRAME":"TEME","RA_OF_ASC_NODE":"164.9595","OBJECT_TYPE":"PAYLOAD","MEAN_MOTION_DDOT":"0.0000000000000"},{"ARG_OF_PERICENTER":"39.7870","MEAN_MOTION":"15.42198774","CLASSIFICATION_TYPE":"U","RA_OF_ASC_NODE":"167.9735","REF_FRAME":"TEME","OBJECT_TYPE":"PAYLOAD","MEAN_MOTION_DDOT":"0.0000000000000","MEAN_ELEMENT_THEORY":"SGP4","REV_AT_EPOCH":"362","GP_ID":"186227252","MEAN_MOTION_DOT":"-0.00021243","NORAD_CAT_ID":"48575","PERIOD":"93.373","TLE_LINE2":"2 48575  53.0567 167.9735 0002005  39.7870 274.8946 15.42198774  3625","TIME_SYSTEM":"UTC","APOAPSIS":"440.990","PERIAPSIS":"438.256","LAUNCH_DATE":"2021-05-15","ECCENTRICITY":"0.00020050","RCS_SIZE":"LARGE","SEMIMAJOR_AXIS":"6817.758","SITE":"AFETR","EPHEMERIS_TYPE":"0","OBJECT_ID":"2021-041Y","INCLINATION":"53.0567","TLE_LINE1":"1 48575U 21041Y   21278.00001157 -.00021243  00000-0 -47934-3 0  9995","CENTER_NAME":"EARTH","ELEMENT_SET_NO":"999","EPOCH":"2021-10-05T00:00:00.999648","MEAN_ANOMALY":"274.8946","OBJECT_NAME":"STARLINK-2227","DECAY_DATE":null,"FILE":"3144803","BSTAR":"-0.00047934000000","COUNTRY_CODE":"US"},{"BSTAR":"-0.03721600000000","FILE":"3144803","COUNTRY_CODE":"US","EPOCH":"2021-10-05T00:00:00.999648","DECAY_DATE":null,"OBJECT_NAME":"STARLINK-2228","MEAN_ANOMALY":"158.5896","CENTER_NAME":"EARTH","ELEMENT_SET_NO":"999","INCLINATION":"53.0540","OBJECT_ID":"2021-041Z","EPHEMERIS_TYPE":"0","SITE":"AFETR","TLE_LINE1":"1 48576U 21041Z   21278.00001157 -.01073856  00000-0 -37216-1 0  9994","RCS_SIZE":"LARGE","SEMIMAJOR_AXIS":"6847.548","APOAPSIS":"470.375","TIME_SYSTEM":"UTC","ECCENTRICITY":"0.00014050","LAUNCH_DATE":"2021-05-15","PERIAPSIS":"468.451","REV_AT_EPOCH":"362","MEAN_ELEMENT_THEORY":"SGP4","PERIOD":"93.986","TLE_LINE2":"2 48576  53.0540 165.1682 0001405  81.4059 158.5896 15.32146031  3624","NORAD_CAT_ID":"48576","MEAN_MOTION_DOT":"-0.01073856","GP_ID":"186227360","REF_FRAME":"TEME","RA_OF_ASC_NODE":"165.1682","CLASSIFICATION_TYPE":"U","MEAN_MOTION":"15.32146031","ARG_OF_PERICENTER":"81.4059","MEAN_MOTION_DDOT":"0.0000000000000","OBJECT_TYPE":"PAYLOAD"},{"MEAN_MOTION_DDOT":"0.0000000000000","OBJECT_TYPE":"PAYLOAD","RA_OF_ASC_NODE":"190.1893","REF_FRAME":"TEME","ARG_OF_PERICENTER":"58.0494","MEAN_MOTION":"15.06391348","CLASSIFICATION_TYPE":"U","NORAD_CAT_ID":"48577","TLE_LINE2":"2 48577  53.0538 190.1893 0001829  58.0494 302.0673 15.06391348 21495","PERIOD":"95.593","GP_ID":"186227575","MEAN_MOTION_DOT":"-0.00000163","MEAN_ELEMENT_THEORY":"SGP4","REV_AT_EPOCH":"2149","PERIAPSIS":"545.973","LAUNCH_DATE":"2021-05-15","ECCENTRICITY":"0.00018290","APOAPSIS":"548.507","TIME_SYSTEM":"UTC","SEMIMAJOR_AXIS":"6925.375","RCS_SIZE":"LARGE","TLE_LINE1":"1 48577U 21041AA  21277.78612450 -.00000163  00000-0  79581-5 0  9997","OBJECT_ID":"2021-041AA","INCLINATION":"53.0538","EPHEMERIS_TYPE":"0","SITE":"AFETR","ELEMENT_SET_NO":"999","CENTER_NAME":"EARTH","DECAY_DATE":null,"OBJECT_NAME":"STARLINK-2231","MEAN_ANOMALY":"302.0673","EPOCH":"2021-10-04T18:52:01.156800","COUNTRY_CODE":"US","BSTAR":"0.00000795810000","FILE":"3144803"},{"APOAPSIS":"548.386","TIME_SYSTEM":"UTC","LAUNCH_DATE":"2021-05-15","ECCENTRICITY":"0.00016770","PERIAPSIS":"546.063","RCS_SIZE":"LARGE","SEMIMAJOR_AXIS":"6925.359","REF_FRAME":"TEME","RA_OF_ASC_NODE":"191.4441","CLASSIFICATION_TYPE":"U","ARG_OF_PERICENTER":"58.5510","MEAN_MOTION":"15.06396444","MEAN_MOTION_DDOT":"0.0000000000000","OBJECT_TYPE":"PAYLOAD","REV_AT_EPOCH":"2190","MEAN_ELEMENT_THEORY":"SGP4","TLE_LINE2":"2 48578  53.0561 191.4441 0001677  58.5510 301.5642 15.06396444 21908","PERIOD":"95.592","NORAD_CAT_ID":"48578","MEAN_MOTION_DOT":"0.00000149","GP_ID":"186200325","EPOCH":"2021-10-04T12:01:57.180000","DECAY_DATE":null,"OBJECT_NAME":"STARLINK-2232","MEAN_ANOMALY":"301.5642","BSTAR":"0.00002894100000","FILE":"3144645","COUNTRY_CODE":"US","INCLINATION":"53.0561","OBJECT_ID":"2021-041AB","SITE":"AFETR","EPHEMERIS_TYPE":"0","TLE_LINE1":"1 48578U 21041AB  21277.50135625  .00000149  00000-0  28941-4 0  9998","CENTER_NAME":"EARTH","ELEMENT_SET_NO":"999"},{"CENTER_NAME":"EARTH","ELEMENT_SET_NO":"999","OBJECT_ID":"2021-041AC","INCLINATION":"53.0562","SITE":"AFETR","EPHEMERIS_TYPE":"0","TLE_LINE1":"1 48579U 21041AC  21277.17794463 -.00001847  00000-0 -10513-3 0  9996","BSTAR":"-0.00010513000000","FILE":"3144407","COUNTRY_CODE":"US","EPOCH":"2021-10-04T04:16:14.416032","DECAY_DATE":null,"OBJECT_NAME":"STARLINK-2233","MEAN_ANOMALY":"287.8045","REV_AT_EPOCH":"2140","MEAN_ELEMENT_THEORY":"SGP4","NORAD_CAT_ID":"48579","TLE_LINE2":"2 48579  53.0562 192.9062 0001693  72.3129 287.8045 15.06391532 21404","PERIOD":"95.593","GP_ID":"186194185","MEAN_MOTION_DOT":"-0.00001847","RA_OF_ASC_NODE":"192.9062","REF_FRAME":"TEME","MEAN_MOTION":"15.06391532","ARG_OF_PERICENTER":"72.3129","CLASSIFICATION_TYPE":"U","MEAN_MOTION_DDOT":"0.0000000000000","OBJECT_TYPE":"PAYLOAD","RCS_SIZE":"LARGE","SEMIMAJOR_AXIS":"6925.375","APOAPSIS":"548.412","TIME_SYSTEM":"UTC","PERIAPSIS":"546.067","LAUNCH_DATE":"2021-05-15","ECCENTRICITY":"0.00016930"},{"ELEMENT_SET_NO":"999","CENTER_NAME":"EARTH","TLE_LINE1":"1 48580U 21041AD  21278.00001157 -.01068380  00000-0 -38692-1 0  9994","OBJECT_ID":"2021-041AD","INCLINATION":"53.0535","SITE":"AFETR","EPHEMERIS_TYPE":"0","COUNTRY_CODE":"US","BSTAR":"-0.03869200000000","FILE":"3144803","OBJECT_NAME":"STARLINK-2234","DECAY_DATE":null,"MEAN_ANOMALY":"147.5602","EPOCH":"2021-10-05T00:00:00.999648","NORAD_CAT_ID":"48580","PERIOD":"94.073","TLE_LINE2":"2 48580  53.0535 165.1293 0001502  68.0324 147.5602 15.30729560  3620","GP_ID":"186227035","MEAN_MOTION_DOT":"-0.01068380","MEAN_ELEMENT_THEORY":"SGP4","REV_AT_EPOCH":"362","MEAN_MOTION_DDOT":"0.0000000000000","OBJECT_TYPE":"PAYLOAD","RA_OF_ASC_NODE":"165.1293","REF_FRAME":"TEME","ARG_OF_PERICENTER":"68.0324","MEAN_MOTION":"15.30729560","CLASSIFICATION_TYPE":"U","SEMIMAJOR_AXIS":"6851.771","RCS_SIZE":"LARGE","LAUNCH_DATE":"2021-05-15","PERIAPSIS":"472.607","ECCENTRICITY":"0.00015020","APOAPSIS":"474.665","TIME_SYSTEM":"UTC"},{"TLE_LINE1":"1 48581U 21041AE  21278.00001157  .00028172  00000-0  65464-3 0  9996","SITE":"AFETR","EPHEMERIS_TYPE":"0","OBJECT_ID":"2021-041AE","INCLINATION":"53.0540","ELEMENT_SET_NO":"999","CENTER_NAME":"EARTH","MEAN_ANOMALY":"276.6919","OBJECT_NAME":"STARLINK-2235","DECAY_DATE":null,"EPOCH":"2021-10-05T00:00:00.999648","COUNTRY_CODE":"US","FILE":"3144803","BSTAR":"0.00065464000000","OBJECT_TYPE":"PAYLOAD","MEAN_MOTION_DDOT":"0.0000000000000","ARG_OF_PERICENTER":"37.7043","MEAN_MOTION":"15.42148487","CLASSIFICATION_TYPE":"U","RA_OF_ASC_NODE":"167.0957","REF_FRAME":"TEME","GP_ID":"186227679","MEAN_MOTION_DOT":"0.00028172","NORAD_CAT_ID":"48581","PERIOD":"93.376","TLE_LINE2":"2 48581  53.0540 167.0957 0002224  37.7043 276.6919 15.42148487  3629","MEAN_ELEMENT_THEORY":"SGP4","REV_AT_EPOCH":"362","PERIAPSIS":"438.255","LAUNCH_DATE":"2021-05-15","ECCENTRICITY":"0.00022240","TIME_SYSTEM":"UTC","APOAPSIS":"441.288","SEMIMAJOR_AXIS":"6817.907","RCS_SIZE":"LARGE"},{"SEMIMAJOR_AXIS":"6817.853","RCS_SIZE":"LARGE","PERIAPSIS":"438.096","LAUNCH_DATE":"2021-05-15","ECCENTRICITY":"0.00023790","APOAPSIS":"441.340","TIME_SYSTEM":"UTC","PERIOD":"93.375","TLE_LINE2":"2 48582  53.0549 165.6628 0002379  26.8800 292.7897 15.42166614  3625","NORAD_CAT_ID":"48582","MEAN_MOTION_DOT":"0.00002248","GP_ID":"186227140","REV_AT_EPOCH":"362","MEAN_ELEMENT_THEORY":"SGP4","MEAN_MOTION_DDOT":"0.0000000000000","OBJECT_TYPE":"PAYLOAD","REF_FRAME":"TEME","RA_OF_ASC_NODE":"165.6628","CLASSIFICATION_TYPE":"U","MEAN_MOTION":"15.42166614","ARG_OF_PERICENTER":"26.8800","COUNTRY_CODE":"US","BSTAR":"0.00006110000000","FILE":"3144803","DECAY_DATE":null,"OBJECT_NAME":"STARLINK-2236","MEAN_ANOMALY":"292.7897","EPOCH":"2021-10-05T00:00:00.999648","ELEMENT_SET_NO":"999","CENTER_NAME":"EARTH","TLE_LINE1":"1 48582U 21041AF  21278.00001157  .00002248  00000-0  61100-4 0  9997","INCLINATION":"53.0549","OBJECT_ID":"2021-041AF","SITE":"AFETR","EPHEMERIS_TYPE":"0"},{"REV_AT_EPOCH":"2176","MEAN_ELEMENT_THEORY":"SGP4","NORAD_CAT_ID":"48583","TLE_LINE2":"2 48583  53.0569 201.5103 0001834  64.0332 296.0846 15.06395242 21762","PERIOD":"95.592","GP_ID":"186195665","MEAN_MOTION_DOT":"0.00000314","RA_OF_ASC_NODE":"201.5103","REF_FRAME":"TEME","ARG_OF_PERICENTER":"64.0332","MEAN_MOTION":"15.06395242","CLASSIFICATION_TYPE":"U","MEAN_MOTION_DDOT":"0.0000000000000","OBJECT_TYPE":"PAYLOAD","RCS_SIZE":"LARGE","SEMIMAJOR_AXIS":"6925.363","APOAPSIS":"548.498","TIME_SYSTEM":"UTC","LAUNCH_DATE":"2021-05-15","PERIAPSIS":"545.958","ECCENTRICITY":"0.00018340","CENTER_NAME":"EARTH","ELEMENT_SET_NO":"999","OBJECT_ID":"2021-041AG","INCLINATION":"53.0569","EPHEMERIS_TYPE":"0","SITE":"AFETR","TLE_LINE1":"1 48583U 21041AG  21277.49032421  .00000314  00000-0  39973-4 0  9993","BSTAR":"0.00003997300000","FILE":"3144438","COUNTRY_CODE":"US","EPOCH":"2021-10-04T11:46:04.011744","DECAY_DATE":null,"OBJECT_NAME":"STARLINK-2237","MEAN_ANOMALY":"296.0846"}];
